IRIDIUM 154             
1 43574U 18061F   26176.39451915  .00000094  00000+0  26579-4 0  9993
2 43574  86.3956  53.3750 0002174  89.2206 270.9239 14.34217864414580
IRIDIUM 163             
1 43575U 18061G   26176.37549191  .00000086  00000+0  23576-4 0  9991
2 43575  86.3954  53.2980 0002210  83.6680 276.4768 14.34217548414552
IRIDIUM 156             
1 43576U 18061H   26176.41989563  .00000221  00000+0  71959-4 0  9997
2 43576  86.3955  53.2867 0002008  85.0817 275.0609 14.34218267414559
IRIDIUM 164             
1 43577U 18061J   26176.19155638  .00000100  00000+0  28714-4 0  9998
2 43577  86.3956  53.4227 0002186  89.5683 270.5763 14.34218098414564
IRIDIUM 159             
1 43578U 18061K   26176.57845489 -.00000005  00000+0 -87401-5 0  9996
2 43578  86.3949  53.1973 0002118  83.7192 276.4245 14.34217376414588
IRIDIUM 180             
1 43922U 19002A   26176.50818215  .00000004  00000+0 -56141-5 0  9990
2 43922  86.3970 350.1183 0002143  89.3636 270.7806 14.34217389390184
IRIDIUM 176             
1 43923U 19002B   26176.51893685  .00000521  00000+0  78801-4 0  9995
2 43923  86.6091 350.0561 0002402  88.5026 271.6466 14.72223815400472
IRIDIUM 168             
1 43924U 19002C   26176.57160197  .00000174  00000+0  55159-4 0  9992
2 43924  86.3973 350.1691 0002251  90.6438 269.5016 14.34216898390170
IRIDIUM 173             
1 43925U 19002D   26176.55892319  .00000055  00000+0  12404-4 0  9993
2 43925  86.3972 350.0631 0002167  88.4637 271.6807 14.34217788390154
IRIDIUM 169             
1 43926U 19002E   26176.52937678  .00000382  00000+0  11844-3 0  9998
2 43926  86.4221  21.7049 0001700  81.3047 278.8344 14.38607370391427
IRIDIUM 172             
1 43927U 19002F   26176.55257818  .00000016  00000+0 -13226-5 0  9996
2 43927  86.3968 350.0735 0002143  89.9049 270.2392 14.34216950390168
IRIDIUM 175             
1 43928U 19002G   26176.38567547  .00000301  00000+0  82852-4 0  9997
2 43928  86.4515 287.0937 0003559 157.0348 203.1013 14.43616966400160
IRIDIUM 171             
1 43929U 19002H   26176.53355214  .00000000  00000+0 -69894-5 0  9990
2 43929  86.3978 350.3888 0001958  93.3417 266.8003 14.34217490390153
IRIDIUM 170             
1 43930U 19002J   26176.52511402  .00000869  00000+0  13393-3 0  9997
2 43930  86.6091 350.0557 0002546  86.2765 273.8743 14.72225348400485
IRIDIUM 167             
1 43931U 19002K   26176.52720915  .00000009  00000+0 -37730-5 0  9999
2 43931  86.3968 350.1067 0001882  96.7991 263.3419 14.34217619390158
IRIDIUM 181             
1 56726U 23068S   26176.35665560  .00000269  00000+0  73994-4 0  9995
2 56726  86.4492  53.3753 0002401  87.9673 272.1803 14.43310328163613
IRIDIUM 177             
1 56727U 23068T   26176.43477330  .00001032  00000+0  13232-3 0  9998
2 56727  86.1969 324.8737 0002363  88.9701 271.1791 14.80227039167580
IRIDIUM 174             
1 56728U 23068U   26176.51278003  .00000882  00000+0  13605-3 0  9990
2 56728  86.6100 350.2090 0002450  80.6711 279.4783 14.72232784167244
IRIDIUM 178             
1 56729U 23068V   26176.49146707  .00000965  00000+0  12350-3 0  9991
2 56729  86.6533  21.8888 0002557  84.2279 275.9234 14.80247119167595
IRIDIUM 179             
1 56730U 23068W   26176.55371054  .00000409  00000+0  50438-4 0  9998
2 56730  86.6768  30.8677 0002412  89.2329 270.9169 14.80228060167602
