OBJECT_NAME,OBJECT_ID,EPOCH,MEAN_MOTION,ECCENTRICITY,INCLINATION,RA_OF_ASC_NODE,ARG_OF_PERICENTER,MEAN_ANOMALY,EPHEMERIS_TYPE,CLASSIFICATION_TYPE,NORAD_CAT_ID,ELEMENT_SET_NO,REV_AT_EPOCH,BSTAR,MEAN_MOTION_DOT,MEAN_MOTION_DDOT
IRIDIUM 154,2018-061F,2026-06-25T09:28:06.454560,14.34217864,.00021748,86.3956,53.3750,89.2206,270.9239,0,U,43574,999,41458,.26579278E-4,.94E-6,0
IRIDIUM 163,2018-061G,2026-06-25T09:00:42.501024,14.34217548,.00022104,86.3954,53.2980,83.6680,276.4768,0,U,43575,999,41455,.23576298E-4,.86E-6,0
IRIDIUM 156,2018-061H,2026-06-25T10:04:38.982432,14.34218267,.00020086,86.3955,53.2867,85.0817,275.0609,0,U,43576,999,41455,.71958989E-4,.221E-5,0
IRIDIUM 164,2018-061J,2026-06-25T04:35:50.471232,14.34218098,.00021866,86.3956,53.4227,89.5683,270.5763,0,U,43577,999,41456,.28713879E-4,.1E-5,0
IRIDIUM 159,2018-061K,2026-06-25T13:52:58.502496,14.34217376,.00021188,86.3949,53.1973,83.7192,276.4245,0,U,43578,999,41458,-.8740081E-5,-.5E-7,0
IRIDIUM 180,2019-002A,2026-06-25T12:11:46.937760,14.34217389,.00021437,86.3970,350.1183,89.3636,270.7806,0,U,43922,999,39018,-.5614099E-5,.4E-7,0
IRIDIUM 176,2019-002B,2026-06-25T12:27:16.143840,14.72223815,.00024024,86.6091,350.0561,88.5026,271.6466,0,U,43923,999,40047,.78801172E-4,.521E-5,0
IRIDIUM 168,2019-002C,2026-06-25T13:43:06.410208,14.34216898,.00022516,86.3973,350.1691,90.6438,269.5016,0,U,43924,999,39017,.55159247E-4,.174E-5,0
IRIDIUM 173,2019-002D,2026-06-25T13:24:50.963616,14.34217788,.00021673,86.3972,350.0631,88.4637,271.6807,0,U,43925,999,39015,.12404359E-4,.55E-6,0
IRIDIUM 169,2019-002E,2026-06-25T12:42:18.153792,14.38607370,.00017001,86.4221,21.7049,81.3047,278.8344,0,U,43926,999,39142,.11843628E-3,.382E-5,0
IRIDIUM 172,2019-002F,2026-06-25T13:15:42.754752,14.34216950,.00021434,86.3968,350.0735,89.9049,270.2392,0,U,43927,999,39016,-.13226E-5,.16E-6,0
IRIDIUM 175,2019-002G,2026-06-25T09:15:22.360608,14.43616966,.00035592,86.4515,287.0937,157.0348,203.1013,0,U,43928,999,40016,.82851719E-4,.301E-5,0
IRIDIUM 171,2019-002H,2026-06-25T12:48:18.904896,14.34217490,.00019583,86.3978,350.3888,93.3417,266.8003,0,U,43929,999,39015,-.6989409E-5,0,0
IRIDIUM 170,2019-002J,2026-06-25T12:36:09.851328,14.72225348,.00025467,86.6091,350.0557,86.2765,273.8743,0,U,43930,999,40048,.13392695E-3,.869E-5,0
IRIDIUM 167,2019-002K,2026-06-25T12:39:10.870560,14.34217619,.00018824,86.3968,350.1067,96.7991,263.3419,0,U,43931,999,39015,-.3773022E-5,.9E-7,0
IRIDIUM 181,2023-068S,2026-06-25T08:33:35.043840,14.43310328,.00024012,86.4492,53.3753,87.9673,272.1803,0,U,56726,999,16361,.73993991E-4,.269E-5,0
IRIDIUM 177,2023-068T,2026-06-25T10:26:04.413120,14.80227039,.00023637,86.1969,324.8737,88.9701,271.1791,0,U,56727,999,16758,.13232462E-3,.1032E-4,0
IRIDIUM 174,2023-068U,2026-06-25T12:18:24.194592,14.72232784,.00024507,86.6100,350.2090,80.6711,279.4783,0,U,56728,999,16724,.13605114E-3,.882E-5,0
IRIDIUM 178,2023-068V,2026-06-25T11:47:42.754848,14.80247119,.0002557,86.6533,21.8888,84.2279,275.9234,0,U,56729,999,16759,.1235045E-3,.965E-5,0
IRIDIUM 179,2023-068W,2026-06-25T13:17:20.590656,14.80228060,.00024124,86.6768,30.8677,89.2329,270.9169,0,U,56730,999,16760,.50438112E-4,.409E-5,0
